{
  "type": "FeatureCollection",
  "features": [
    {
      "type": "Feature",
      "properties": {
        "norad_id": 30350,
        "name": "FENGYUN 1C DEB",
        "group": "fengyun-1c-debris",
        "lat": -45.78974155055935,
        "lon": 167.53264858662936,
        "alt_km": 804.4710957930884,
        "timestamp": "2025-12-05T18:53:13.557752+00:00",
        "meta_object_name": "FENGYUN 1C DEB",
        "meta_object_id": "1999-025ABM",
        "meta_epoch": "2025-12-03T18:33:21.907008",
        "meta_mean_motion": 13.82787416,
        "meta_eccentricity": 0.02195057,
        "meta_inclination": 98.0929,
        "meta_ra_of_asc_node": 157.3891,
        "meta_arg_of_pericenter": 333.4842,
        "meta_mean_anomaly": 41.6328,
        "meta_ephemeris_type": 0,
        "meta_classification_type": "U",
        "meta_norad_cat_id": 30350,
        "meta_element_set_no": 999,
        "meta_rev_at_epoch": 94858,
        "meta_bstar": 0.00092157584,
        "meta_mean_motion_dot": 1.17e-05,
        "meta_mean_motion_ddot": 0,
        "tle_line1": "1 30350U 99025ABM 25337.77317022  .00001170  00000+0  92158-3 0  9991",
        "tle_line2": "2 30350  98.0929 157.3891 0219505 333.4842  41.6328 13.82787416948588"
      },
      "geometry": {
        "type": "Point",
        "coordinates": [
          167.53264858662936,
          -45.78974155055935
        ]
      }
    },
    {
      "type": "Feature",
      "properties": {
        "norad_id": 30352,
        "name": "FENGYUN 1C DEB",
        "group": "fengyun-1c-debris",
        "lat": -33.14467323885434,
        "lon": 6.853946291319661,
        "alt_km": 853.8674702795388,
        "timestamp": "2025-12-05T18:53:13.557762+00:00",
        "meta_object_name": "FENGYUN 1C DEB",
        "meta_object_id": "1999-025ABP",
        "meta_epoch": "2025-12-05T00:32:12.385248",
        "meta_mean_motion": 14.07575693,
        "meta_eccentricity": 0.00281378,
        "meta_inclination": 98.7647,
        "meta_ra_of_asc_node": 0.3303,
        "meta_arg_of_pericenter": 341.4468,
        "meta_mean_anomaly": 72.8711,
        "meta_ephemeris_type": 0,
        "meta_classification_type": "U",
        "meta_norad_cat_id": 30352,
        "meta_element_set_no": 999,
        "meta_rev_at_epoch": 96802,
        "meta_bstar": 0.00034740103,
        "meta_mean_motion_dot": 5.45e-06,
        "meta_mean_motion_ddot": 0,
        "tle_line1": "1 30352U 99025ABP 25339.02236557  .00000545  00000+0  34740-3 0  9994",
        "tle_line2": "2 30352  98.7647   0.3303 0028137 341.4468  72.8711 14.07575693968024"
      },
      "geometry": {
        "type": "Point",
        "coordinates": [
          6.853946291319661,
          -33.14467323885434
        ]
      }
    },
    {
      "type": "Feature",
      "properties": {
        "norad_id": 30355,
        "name": "FENGYUN 1C DEB",
        "group": "fengyun-1c-debris",
        "lat": 36.830379453288366,
        "lon": -22.14343354677929,
        "alt_km": 811.915867237095,
        "timestamp": "2025-12-05T18:53:13.557773+00:00",
        "meta_object_name": "FENGYUN 1C DEB",
        "meta_object_id": "1999-025ABS",
        "meta_epoch": "2025-12-05T06:56:13.546752",
        "meta_mean_motion": 14.18788456,
        "meta_eccentricity": 0.00534315,
        "meta_inclination": 98.5888,
        "meta_ra_of_asc_node": 343.8733,
        "meta_arg_of_pericenter": 331.2626,
        "meta_mean_anomaly": 43.8349,
        "meta_ephemeris_type": 0,
        "meta_classification_type": "U",
        "meta_norad_cat_id": 30355,
        "meta_element_set_no": 999,
        "meta_rev_at_epoch": 97245,
        "meta_bstar": 0.0011042094,
        "meta_mean_motion_dot": 2.285e-05,
        "meta_mean_motion_ddot": 0,
        "tle_line1": "1 30355U 99025ABS 25339.28904568  .00002285  00000+0  11042-2 0  9991",
        "tle_line2": "2 30355  98.5888 343.8733 0053431 331.2626  43.8349 14.18788456972454"
      },
      "geometry": {
        "type": "Point",
        "coordinates": [
          -22.14343354677929,
          36.830379453288366
        ]
      }
    },
    {
      "type": "Feature",
      "properties": {
        "norad_id": 30356,
        "name": "FENGYUN 1C DEB",
        "group": "fengyun-1c-debris",
        "lat": -17.748486194265652,
        "lon": -21.95929790823769,
        "alt_km": 822.3501399786037,
        "timestamp": "2025-12-05T18:53:13.557784+00:00",
        "meta_object_name": "FENGYUN 1C DEB",
        "meta_object_id": "1999-025ABT",
        "meta_epoch": "2025-12-04T22:49:50.864160",
        "meta_mean_motion": 14.13002394,
        "meta_eccentricity": 0.005221,
        "meta_inclination": 98.6805,
        "meta_ra_of_asc_node": 334.4277,
        "meta_arg_of_pericenter": 311.3854,
        "meta_mean_anomaly": 101.8775,
        "meta_ephemeris_type": 0,
        "meta_classification_type": "U",
        "meta_norad_cat_id": 30356,
        "meta_element_set_no": 999,
        "meta_rev_at_epoch": 96911,
        "meta_bstar": 0.0012424,
        "meta_mean_motion_dot": 2.304e-05,
        "meta_mean_motion_ddot": 0,
        "tle_line1": "1 30356U 99025ABT 25338.95128315  .00002304  00000+0  12424-2 0  9990",
        "tle_line2": "2 30356  98.6805 334.4277 0052210 311.3854 101.8775 14.13002394969112"
      },
      "geometry": {
        "type": "Point",
        "coordinates": [
          -21.95929790823769,
          -17.748486194265652
        ]
      }
    },
    {
      "type": "Feature",
      "properties": {
        "norad_id": 30357,
        "name": "FENGYUN 1C DEB",
        "group": "fengyun-1c-debris",
        "lat": 2.171233047247821,
        "lon": 6.900051442430831,
        "alt_km": 843.4025665105755,
        "timestamp": "2025-12-05T18:53:13.557794+00:00",
        "meta_object_name": "FENGYUN 1C DEB",
        "meta_object_id": "1999-025ABU",
        "meta_epoch": "2025-12-05T02:05:25.492704",
        "meta_mean_motion": 14.05257868,
        "meta_eccentricity": 0.00491862,
        "meta_inclination": 98.8071,
        "meta_ra_of_asc_node": 6.5572,
        "meta_arg_of_pericenter": 351.7397,
        "meta_mean_anomaly": 71.862,
        "meta_ephemeris_type": 0,
        "meta_classification_type": "U",
        "meta_norad_cat_id": 30357,
        "meta_element_set_no": 999,
        "meta_rev_at_epoch": 96699,
        "meta_bstar": 0.00035689858,
        "meta_mean_motion_dot": 5.4e-06,
        "meta_mean_motion_ddot": 0,
        "tle_line1": "1 30357U 99025ABU 25339.08710061  .00000540  00000+0  35690-3 0  9992",
        "tle_line2": "2 30357  98.8071   6.5572 0049186 351.7397  71.8620 14.05257868966990"
      },
      "geometry": {
        "type": "Point",
        "coordinates": [
          6.900051442430831,
          2.171233047247821
        ]
      }
    },
    {
      "type": "Feature",
      "properties": {
        "norad_id": 30358,
        "name": "FENGYUN 1C DEB",
        "group": "fengyun-1c-debris",
        "lat": 9.835241207289355,
        "lon": 167.6272075544436,
        "alt_km": 876.6646901913427,
        "timestamp": "2025-12-05T18:53:13.557804+00:00",
        "meta_object_name": "FENGYUN 1C DEB",
        "meta_object_id": "1999-025ABV",
        "meta_epoch": "2025-12-05T02:32:10.726080",
        "meta_mean_motion": 14.20575782,
        "meta_eccentricity": 0.00829125,
        "meta_inclination": 98.5533,
        "meta_ra_of_asc_node": 168.4631,
        "meta_arg_of_pericenter": 221.7372,
        "meta_mean_anomaly": 265.6794,
        "meta_ephemeris_type": 0,
        "meta_classification_type": "U",
        "meta_norad_cat_id": 30358,
        "meta_element_set_no": 999,
        "meta_rev_at_epoch": 96809,
        "meta_bstar": 0.0038814358,
        "meta_mean_motion_dot": 8.607e-05,
        "meta_mean_motion_ddot": 0,
        "tle_line1": "1 30358U 99025ABV 25339.10567970  .00008607  00000+0  38814-2 0  9997",
        "tle_line2": "2 30358  98.5533 168.4631 0082912 221.7372 265.6794 14.20575782968091"
      },
      "geometry": {
        "type": "Point",
        "coordinates": [
          167.6272075544436,
          9.835241207289355
        ]
      }
    },
    {
      "type": "Feature",
      "properties": {
        "norad_id": 30359,
        "name": "FENGYUN 1C DEB",
        "group": "fengyun-1c-debris",
        "lat": -25.27496015388349,
        "lon": 169.28887953119974,
        "alt_km": 824.649635977401,
        "timestamp": "2025-12-05T18:53:13.557815+00:00",
        "meta_object_name": "FENGYUN 1C DEB",
        "meta_object_id": "1999-025ABW",
        "meta_epoch": "2025-12-04T05:06:37.861344",
        "meta_mean_motion": 13.93916254,
        "meta_eccentricity": 0.0144806,
        "meta_inclination": 101.6274,
        "meta_ra_of_asc_node": 161.7346,
        "meta_arg_of_pericenter": 3.6292,
        "meta_mean_anomaly": 356.5876,
        "meta_ephemeris_type": 0,
        "meta_classification_type": "U",
        "meta_norad_cat_id": 30359,
        "meta_element_set_no": 999,
        "meta_rev_at_epoch": 94950,
        "meta_bstar": 0.0044245,
        "meta_mean_motion_dot": 6.314e-05,
        "meta_mean_motion_ddot": 0,
        "tle_line1": "1 30359U 99025ABW 25338.21293821  .00006314  00000+0  44245-2 0  9998",
        "tle_line2": "2 30359 101.6274 161.7346 0144806   3.6292 356.5876 13.93916254949506"
      },
      "geometry": {
        "type": "Point",
        "coordinates": [
          169.28887953119974,
          -25.27496015388349
        ]
      }
    }
  ]
}